NORAD_CAT_ID,OBJECT_NAME,OBJECT_TYPE,EPOCH,MEAN_MOTION,ECCENTRICITY,INCLINATION,RA_OF_ASC_NODE,ARG_OF_PERICENTER,MEAN_ANOMALY,BSTAR,MEAN_MOTION_DOT,MEAN_MOTION_DDOT,TLE_LINE0,TLE_LINE1,TLE_LINE2,SEMIMAJOR_AXIS,PERIOD,APOGEE,PERIGEE,DECAYED
53708.0,STARLINK-4694,PAYLOAD,2024-05-03 21:12:43,15.08815419,0.0001424,53.2165,18.3089,83.7839,276.3315,-0.00031047,-5.222e-05,0.0,0 STARLINK-4694,1 53708U 22107J   24124.88383294 -.00005222  00000-0 -31047-3 0  9994,2 53708  53.2165  18.3089 0001424  83.7839 276.3315 15.08815419 92443,6917.956,95.439,540.806,538.835,0.0
53708.0,STARLINK-4694,PAYLOAD,2024-05-03 22:48:06,15.08815231,0.0001397,53.2151,18.0103,78.6339,281.4809,-0.00030942,-5.206e-05,0.0,0 STARLINK-4694,1 53708U 22107J   24124.95007388 -.00005206  00000-0 -30942-3 0  9994,2 53708  53.2151  18.0103 0001397  78.6339 281.4809 15.08815231 93201,6917.956,95.439,540.788,538.855,0.0
53708.0,STARLINK-4694,PAYLOAD,2024-05-04 09:55:48,15.08828283,0.0001564,53.2179,15.9283,80.1789,279.9379,6.3653e-05,7.25e-06,0.0,0 STARLINK-4694,1 53708U 22107J   24125.41375673  .00000725  00000-0  63653-4 0  9996,2 53708  53.2179  15.9283 0001564  80.1789 279.9379 15.08828283 92528,6917.916,95.438,540.863,538.699,0.0
53708.0,STARLINK-4694,PAYLOAD,2024-05-05 00:14:16,15.08846772,0.0001335,53.217,13.2536,76.5308,283.5833,0.0010555,0.00016553,0.0,0 STARLINK-4694,1 53708U 22107J   24126.00991832  .00016553  00000-0  10555-2 0  9990,2 53708  53.2170  13.2536 0001335  76.5308 283.5833 15.08846772 92612,6917.86,95.437,540.648,538.801,0.0
53708.0,STARLINK-4694,PAYLOAD,2024-05-05 22:29:39,15.08876334,0.0001336,53.2173,9.0898,76.5284,283.5857,0.0011404,0.00017926,0.0,0 STARLINK-4694,1 53708U 22107J   24126.93726581  .00017926  00000-0  11404-2 0  9998,2 53708  53.2173   9.0898 0001336  76.5284 283.5857 15.08876334 93505,6917.769,95.435,540.559,538.71,0.0
53708.0,STARLINK-4694,PAYLOAD,2024-05-06 01:40:25,15.08884396,0.0001369,53.2171,8.4948,76.5171,283.5974,0.0013256,0.00020898,0.0,0 STARLINK-4694,1 53708U 22107J   24127.06974196  .00020898  00000-0  13256-2 0  9999,2 53708  53.2171   8.4948 0001369  76.5171 283.5974 15.08884396 92778,6917.745,95.435,540.557,538.663,0.0
53708.0,STARLINK-4694,PAYLOAD,2024-05-06 09:37:21,15.08867697,0.0001525,53.2173,7.0088,79.3815,280.7349,0.00060356,9.338e-05,0.0,0 STARLINK-4694,1 53708U 22107J   24127.40094158  .00009338  00000-0  60356-3 0  9998,2 53708  53.2173   7.0088 0001525  79.3815 280.7349 15.08867697 92826,6917.796,95.436,540.716,538.606,0.0
53708.0,STARLINK-4694,PAYLOAD,2024-05-06 20:45:03,15.08849303,0.0001592,53.2168,4.9265,101.635,258.4821,4.7423e-05,4.67e-06,0.0,0 STARLINK-4694,1 53708U 22107J   24127.86462165  .00000467  00000-0  47423-4 0  9990,2 53708  53.2168   4.9265 0001592 101.6350 258.4821 15.08849303 92898,6917.852,95.437,540.818,538.616,0.0
53708.0,STARLINK-4694,PAYLOAD,2024-05-06 22:20:26,15.08847326,0.0001596,53.2169,4.6296,88.1229,271.9946,-2.5806e-05,-6.99e-06,0.0,0 STARLINK-4694,1 53708U 22107J   24127.93086303 -.00000699  00000-0 -25806-4 0  9994,2 53708  53.2169   4.6296 0001596  88.1229 271.9946 15.08847326 93654,6917.858,95.437,540.827,538.619,0.0
53708.0,STARLINK-4694,PAYLOAD,2024-05-07 01:31:12,15.08849023,0.0001586,53.2175,4.0341,89.2128,270.9046,3.5479e-05,2.77e-06,0.0,0 STARLINK-4694,1 53708U 22107J   24128.06334278  .00000277  00000-0  35479-4 0  9993,2 53708  53.2175   4.0341 0001586  89.2128 270.9046 15.08849023 93673,6917.853,95.437,540.815,538.621,0.0
53708.0,STARLINK-4694,PAYLOAD,2024-05-07 20:35:50,15.08836836,0.000146,53.2175,0.4636,92.6538,267.4621,-0.00013167,-2.383e-05,0.0,0 STARLINK-4694,1 53708U 22107J   24128.85822748 -.00002383  00000-0 -13167-3 0  9995,2 53708  53.2175   0.4636 0001460  92.6538 267.4621 15.08836836 93043,6917.89,95.438,540.765,538.745,0.0
53708.0,STARLINK-4694,PAYLOAD,2024-05-07 22:11:13,15.08842458,0.0001405,53.2172,0.1656,90.093,270.0223,-0.00010986,-2.036e-05,0.0,0 STARLINK-4694,1 53708U 22107J   24128.92446634 -.00002036  00000-0 -10986-3 0  9990,2 53708  53.2172   0.1656 0001405  90.0930 270.0223 15.08842458 93805,6917.873,95.437,540.71,538.766,0.0
53708.0,STARLINK-4694,PAYLOAD,2024-05-08 22:02:01,15.08847902,0.0001344,53.2178,355.7088,89.9083,270.2063,0.00034714,5.242e-05,0.0,0 STARLINK-4694,1 53708U 22107J   24129.91806731  .00005242  00000-0  34714-3 0  9993,2 53708  53.2178 355.7088 0001344  89.9083 270.2063 15.08847902 93956,6917.856,95.437,540.651,538.791,0.0
53708.0,STARLINK-4694,PAYLOAD,2024-05-09 07:34:19,15.08848893,0.000126,53.2175,353.9267,92.661,267.4527,0.0002959,4.426e-05,0.0,0 STARLINK-4694,1 53708U 22107J   24130.31550652  .00004426  00000-0  29590-3 0  9996,2 53708  53.2175 353.9267 0001260  92.6610 267.4527 15.08848893 94017,6917.853,95.437,540.59,538.847,0.0
53708.0,STARLINK-4694,PAYLOAD,2024-05-09 20:17:25,15.08843971,0.0001543,53.2188,351.5533,114.5215,245.5939,0.0001621,2.293e-05,0.0,0 STARLINK-4694,1 53708U 22107J   24130.84542857  .00002293  00000-0  16210-3 0  9997,2 53708  53.2188 351.5533 0001543 114.5215 245.5939 15.08843971 93341,6917.868,95.437,540.801,538.666,0.0
53708.0,STARLINK-4694,PAYLOAD,2024-05-10 07:25:07,15.08841937,0.0001417,53.2183,349.4693,105.8771,254.2377,6.8366e-05,8e-06,0.0,0 STARLINK-4694,1 53708U 22107J   24131.30910882  .00000800  00000-0  68366-4 0  9998,2 53708  53.2183 349.4693 0001417 105.8771 254.2377 15.08841937 94163,6917.874,95.437,540.72,538.759,0.0
53708.0,STARLINK-4694,PAYLOAD,2024-05-10 21:43:34,15.08850894,0.0001484,53.2187,346.7881,92.3648,267.7514,0.00016612,2.358e-05,0.0,0 STARLINK-4694,1 53708U 22107J   24131.90526476  .00002358  00000-0  16612-3 0  9992,2 53708  53.2187 346.7881 0001484  92.3648 267.7514 15.08850894 94257,6917.847,95.437,540.739,538.685,0.0
53708.0,STARLINK-4694,PAYLOAD,2024-05-10 23:18:57,15.08863807,0.0001332,53.2172,346.4916,130.1434,229.9675,0.0003148,4.729e-05,0.0,0 STARLINK-4694,1 53708U 22107J   24131.97149407  .00004729  00000-0  31480-3 0  9998,2 53708  53.2172 346.4916 0001332 130.1434 229.9675 15.08863807 93517,6917.808,95.436,540.594,538.751,0.0
53708.0,STARLINK-4694,PAYLOAD,2024-05-11 21:34:20,15.08791302,0.0002587,53.218,342.328,50.4671,309.6549,-0.0025314,-0.000403,0.0,0 STARLINK-4694,1 53708U 22107J   24132.89884461 -.00040300  00000-0 -25314-2 0  9991,2 53708  53.2180 342.3280 0002587  50.4671 309.6549 15.08791302 93656,6918.029,95.441,541.684,538.105,0.0
53708.0,STARLINK-4694,PAYLOAD,2024-05-12 07:06:41,15.08777085,0.0001758,53.2188,340.5426,81.3944,278.7248,-0.0016264,-0.00026035,0.0,0 STARLINK-4694,1 53708U 22107J   24133.29631716 -.00026035  00000-0 -16264-2 0  9992,2 53708  53.2188 340.5426 0001758  81.3944 278.7248 15.08777085 94465,6918.073,95.442,541.154,538.722,0.0
53708.0,STARLINK-4694,PAYLOAD,2024-05-12 21:25:11,15.08800691,0.0001271,53.2169,337.8668,105.3528,254.7605,0.0017843,0.00028193,0.0,0 STARLINK-4694,1 53708U 22107J   24133.89249338  .00028193  00000-0  17843-2 0  9992,2 53708  53.2169 337.8668 0001271 105.3528 254.7605 15.08800691 93804,6918.001,95.44,540.745,538.986,0.0
53708.0,STARLINK-4694,PAYLOAD,2024-05-13 13:19:03,15.08838031,0.000134,53.2176,334.8927,100.4416,259.6727,0.0016914,0.00026732,0.0,0 STARLINK-4694,1 53708U 22107J   24134.55490146  .00026732  00000-0  16914-2 0  9996,2 53708  53.2176 334.8927 0001340 100.4416 259.6727 15.08838031 94658,6917.886,95.438,540.678,538.824,0.0
53708.0,STARLINK-4694,PAYLOAD,2024-05-13 19:40:35,15.08858681,0.0001204,53.2174,333.7033,100.7239,259.3889,0.0009881,0.00015481,0.0,0 STARLINK-4694,1 53708U 22107J   24134.81985423  .00015481  00000-0  98810-3 0  9997,2 53708  53.2174 333.7033 0001204 100.7239 259.3889 15.08858681 94690,6917.823,95.436,540.521,538.855,0.0
53708.0,STARLINK-4694,PAYLOAD,2024-05-14 06:48:16,15.08864652,0.0001092,53.2171,331.6221,94.2115,265.9002,0.00063621,9.859e-05,0.0,0 STARLINK-4694,1 53708U 22107J   24135.28352746  .00009859  00000-0  63621-3 0  9999,2 53708  53.2171 331.6221 0001092  94.2115 265.9002 15.08864652 94019,6917.805,95.436,540.425,538.915,0.0
53708.0,STARLINK-4694,PAYLOAD,2024-05-14 19:31:21,15.08868188,0.0001126,53.2176,329.2432,93.4705,266.6416,0.00047544,7.293e-05,0.0,0 STARLINK-4694,1 53708U 22107J   24135.81343943  .00007293  00000-0  47544-3 0  9993,2 53708  53.2176 329.2432 0001126  93.4705 266.6416 15.08868188 94841,6917.794,95.436,540.438,538.88,0.0
53708.0,STARLINK-4694,PAYLOAD,2024-05-14 22:42:07,15.08874198,0.0001372,53.2168,328.6476,96.4792,263.6356,0.00054421,8.392e-05,0.0,0 STARLINK-4694,1 53708U 22107J   24135.94591574  .00008392  00000-0  54421-3 0  9995,2 53708  53.2168 328.6476 0001372  96.4792 263.6356 15.08874198 94865,6917.776,95.435,540.59,538.692,0.0
53708.0,STARLINK-4694,PAYLOAD,2024-05-15 19:22:07,15.08853586,0.0001258,53.2182,324.7826,89.7785,270.3352,0.00011727,1.58e-05,0.0,0 STARLINK-4694,1 53708U 22107J   24136.80703430  .00001580  00000-0  11727-3 0  9991,2 53708  53.2182 324.7826 0001258  89.7785 270.3352 15.08853586 94248,6917.839,95.437,540.574,538.834,0.0
53708.0,STARLINK-4694,PAYLOAD,2024-05-15 22:32:53,15.08857855,0.0001258,53.2181,324.1851,98.5036,261.6099,0.00018412,2.645e-05,0.0,0 STARLINK-4694,1 53708U 22107J   24136.93951225  .00002645  00000-0  18412-3 0  9993,2 53708  53.2181 324.1851 0001258  98.5036 261.6099 15.08857855 95016,6917.826,95.436,540.561,538.821,0.0
53708.0,STARLINK-4694,PAYLOAD,2024-05-16 12:51:22,15.08850972,0.0001716,53.2184,321.5066,89.8081,270.3108,0.00010471,1.379e-05,0.0,0 STARLINK-4694,1 53708U 22107J   24137.53567287  .00001379  00000-0  10471-3 0  9991,2 53708  53.2184 321.5066 0001716  89.8081 270.3108 15.08850972 94357,6917.847,95.437,540.899,538.525,0.0
53708.0,STARLINK-4694,PAYLOAD,2024-05-16 19:12:53,15.088716,0.0004016,53.2168,320.3204,98.4813,261.6635,0.00053444,8.235e-05,0.0,0 STARLINK-4694,1 53708U 22107J   24137.80062321  .00008235  00000-0  53444-3 0  9995,2 53708  53.2168 320.3204 0004016  98.4813 261.6635 15.08871600 94398,6917.784,95.436,542.427,536.871,0.0
